{
    "links": {
        "self": "http://www.neowsapp.com/rest/v1/neo/54051251?api_key=iIulBulltgU6a56xZRHN4H3l9WmuAYTsLGpBGhQ2"
    },
    "id": "54051251",
    "neo_reference_id": "54051251",
    "name": "(2020 QZ1)",
    "designation": "2020 QZ1",
    "nasa_jpl_url": "http://ssd.jpl.nasa.gov/sbdb.cgi?sstr=54051251",
    "absolute_magnitude_h": 25.339,
    "estimated_diameter": {
        "kilometers": {
            "estimated_diameter_min": 0.0227381421,
            "estimated_diameter_max": 0.0508440315
        },
        "meters": {
            "estimated_diameter_min": 22.7381421192,
            "estimated_diameter_max": 50.8440314605
        },
        "miles": {
            "estimated_diameter_min": 0.0141288221,
            "estimated_diameter_max": 0.0315930067
        },
        "feet": {
            "estimated_diameter_min": 74.6002061902,
            "estimated_diameter_max": 166.8111321768
        }
    },
    "is_potentially_hazardous_asteroid": false,
    "close_approach_data": [
        {
            "close_approach_date": "2020-08-13",
            "close_approach_date_full": "2020-Aug-13 00:34",
            "epoch_date_close_approach": 1597278840000,
            "relative_velocity": {
                "kilometers_per_second": "10.0662565842",
                "kilometers_per_hour": "36238.5237032852",
                "miles_per_hour": "22517.2093532997"
            },
            "miss_distance": {
                "astronomical": "0.0660152763",
                "lunar": "25.6799424807",
                "kilometers": "9875744.721941481",
                "miles": "6136503.2167791978"
            },
            "orbiting_body": "Earth"
        }
    ],
    "orbital_data": {
        "orbit_id": "2",
        "orbit_determination_date": "2020-08-20 07:00:58",
        "first_observation_date": "2020-08-08",
        "last_observation_date": "2020-08-20",
        "data_arc_in_days": 12,
        "observations_used": 33,
        "orbit_uncertainty": "7",
        "minimum_orbit_intersection": ".05701",
        "jupiter_tisserand_invariant": "4.472",
        "epoch_osculation": "2459000.5",
        "eccentricity": ".308838729745641",
        "semi_major_axis": "1.487539515517333",
        "inclination": "16.77008226348711",
        "ascending_node_longitude": "147.0190527468312",
        "orbital_period": "662.6759263051773",
        "perihelion_distance": "1.028129701098514",
        "perihelion_argument": "144.4155613757162",
        "aphelion_distance": "1.946949329936153",
        "perihelion_time": "2459045.462350691858",
        "mean_anomaly": "335.5741145761573",
        "mean_motion": ".5432519663226936",
        "equinox": "J2000",
        "orbit_class": {
            "orbit_class_type": "AMO",
            "orbit_class_description": "Near-Earth asteroid orbits similar to that of 1221 Amor",
            "orbit_class_range": "1.017 AU < q (perihelion) < 1.3 AU"
        }
    },
    "is_sentry_object": false
}